NORAD_CAT_ID,OBJECT_NAME,OBJECT_TYPE,EPOCH,MEAN_MOTION,ECCENTRICITY,INCLINATION,RA_OF_ASC_NODE,ARG_OF_PERICENTER,MEAN_ANOMALY,BSTAR,MEAN_MOTION_DOT,MEAN_MOTION_DDOT,TLE_LINE0,TLE_LINE1,TLE_LINE2,SEMIMAJOR_AXIS,PERIOD,APOGEE,PERIGEE,DECAYED
49767.0,STARLINK-3192,PAYLOAD,2024-03-25 18:39:23,15.0885911,0.0001514,53.2154,103.9924,106.1552,253.9607,0.0017632,0.000279,0.0,0 STARLINK-3192,1 49767U 21115AV  24085.77735806  .00027900  00000-0  17632-2 0  9994,2 49767  53.2154 103.9924 0001514 106.1552 253.9607 15.08859110127903,6917.822,95.436,540.734,538.64,0.0
49767.0,STARLINK-3192,PAYLOAD,2024-03-26 05:47:06,15.08832482,0.0001743,53.216,101.9127,103.0358,257.0829,0.0011767,0.00018485,0.0,0 STARLINK-3192,1 49767U 21115AV  24086.24104642  .00018485  00000-0  11767-2 0  9996,2 49767  53.2160 101.9127 0001743 103.0358 257.0829 15.08832482129082,6917.903,95.438,540.974,538.563,0.0
49767.0,STARLINK-3192,PAYLOAD,2024-03-26 10:33:15,15.08833608,0.0001721,53.2155,101.0214,96.3513,263.7675,0.0007001,0.0001087,0.0,0 STARLINK-3192,1 49767U 21115AV  24086.43976790  .00010870  00000-0  70010-3 0  9995,2 49767  53.2155 101.0214 0001721  96.3513 263.7675 15.08833608128002,6917.9,95.438,540.955,538.574,0.0
49767.0,STARLINK-3192,PAYLOAD,2024-03-26 18:30:11,15.08834653,0.0001783,53.2165,99.5344,96.1115,264.008,0.00058086,8.967e-05,0.0,0 STARLINK-3192,1 49767U 21115AV  24086.77096981  .00008967  00000-0  58086-3 0  9990,2 49767  53.2165  99.5344 0001783  96.1115 264.0080 15.08834653129165,6917.897,95.438,540.995,538.528,0.0
49767.0,STARLINK-3192,PAYLOAD,2024-03-27 10:24:02,15.08857137,0.0001696,53.2154,96.5625,90.3307,269.788,0.0010871,0.00017064,0.0,0 STARLINK-3192,1 49767U 21115AV  24087.43336784  .00017064  00000-0  10871-2 0  9999,2 49767  53.2154  96.5625 0001696  90.3307 269.7880 15.08857137128154,6917.828,95.436,540.866,538.52,0.0
49767.0,STARLINK-3192,PAYLOAD,2024-03-28 05:28:40,15.08855753,0.0001715,53.2163,92.9934,91.8962,268.2227,0.00037911,5.753e-05,0.0,0 STARLINK-3192,1 49767U 21115AV  24088.22824210  .00005753  00000-0  37911-3 0  9990,2 49767  53.2163  92.9934 0001715  91.8962 268.2227 15.08855753129389,6917.832,95.437,540.884,538.511,0.0
49767.0,STARLINK-3192,PAYLOAD,2024-03-28 10:14:49,15.08861952,0.000165,53.2163,92.0989,91.0561,269.062,0.00051255,7.883e-05,0.0,0 STARLINK-3192,1 49767U 21115AV  24088.42695881  .00007883  00000-0  51255-3 0  9995,2 49767  53.2163  92.0989 0001650  91.0561 269.0620 15.08861952128300,6917.813,95.436,540.82,538.537,0.0
49767.0,STARLINK-3192,PAYLOAD,2024-03-29 05:19:26,15.08839508,0.0001438,53.2161,88.5331,68.9689,291.1457,-0.00023317,-3.997e-05,0.0,0 STARLINK-3192,1 49767U 21115AV  24089.22183600 -.00003997  00000-0 -23317-3 0  9997,2 49767  53.2161  88.5331 0001438  68.9689 291.1457 15.08839508129539,6917.882,95.438,540.742,538.752,0.0
49767.0,STARLINK-3192,PAYLOAD,2024-03-29 06:54:49,15.08838943,0.0001464,53.2167,88.2364,76.8452,283.2703,-0.00025522,-4.347e-05,0.0,0 STARLINK-3192,1 49767U 21115AV  24089.28807558 -.00004347  00000-0 -25522-3 0  9998,2 49767  53.2167  88.2364 0001464  76.8452 283.2703 15.08838943128439,6917.884,95.438,540.761,538.736,0.0
49767.0,STARLINK-3192,PAYLOAD,2024-03-29 16:27:08,15.08845361,0.0001419,53.2168,86.4511,72.3635,287.7512,9.0224e-06,-1.44e-06,0.0,0 STARLINK-3192,1 49767U 21115AV  24089.68551395 -.00000144  00000-0  90224-5 0  9990,2 49767  53.2168  86.4511 0001419  72.3635 287.7512 15.08845361128493,6917.864,95.437,540.711,538.747,0.0
49767.0,STARLINK-3192,PAYLOAD,2024-03-30 06:45:37,15.08833165,0.0001501,53.2185,83.7804,91.8612,268.2552,-5.8309e-05,-1.216e-05,0.0,0 STARLINK-3192,1 49767U 21115AV  24090.28168043 -.00001216  00000-0 -58309-4 0  9991,2 49767  53.2185  83.7804 0001501  91.8612 268.2552 15.08833165129690,6917.901,95.438,540.805,538.728,0.0
49767.0,STARLINK-3192,PAYLOAD,2024-03-30 16:17:56,15.08839593,0.0001539,53.2188,81.9961,92.0203,268.0965,9.6013e-05,1.24e-05,0.0,0 STARLINK-3192,1 49767U 21115AV  24090.67912070  .00001240  00000-0  96013-4 0  9990,2 49767  53.2188  81.9961 0001539  92.0203 268.0965 15.08839593128648,6917.882,95.438,540.811,538.682,0.0
49767.0,STARLINK-3192,PAYLOAD,2024-03-31 08:11:48,15.08829062,0.0001341,53.2174,79.02,85.3467,274.7678,0.00011045,1.47e-05,0.0,0 STARLINK-3192,1 49767U 21115AV  24091.34152974  .00001470  00000-0  11045-3 0  9990,2 49767  53.2174  79.0200 0001341  85.3467 274.7678 15.08829062129854,6917.914,95.438,540.707,538.851,0.0
49767.0,STARLINK-3192,PAYLOAD,2024-03-31 16:08:44,15.08827534,0.0001339,53.2176,77.5333,85.3881,274.7264,3.8555e-05,3.26e-06,0.0,0 STARLINK-3192,1 49767U 21115AV  24091.67273227  .00000326  00000-0  38555-4 0  9996,2 49767  53.2176  77.5333 0001339  85.3881 274.7264 15.08827534128798,6917.918,95.438,540.71,538.857,0.0
49767.0,STARLINK-3192,PAYLOAD,2024-04-01 06:27:12,15.08839814,0.0001267,53.217,74.8559,85.4277,274.686,0.00024124,3.554e-05,0.0,0 STARLINK-3192,1 49767U 21115AV  24092.26889082  .00003554  00000-0  24124-3 0  9996,2 49767  53.2170  74.8559 0001267  85.4277 274.6860 15.08839814128887,6917.881,95.438,540.622,538.869,0.0
49767.0,STARLINK-3192,PAYLOAD,2024-04-01 15:59:30,15.08848431,0.0001289,53.2175,73.0722,85.9279,274.186,0.00036059,5.457e-05,0.0,0 STARLINK-3192,1 49767U 21115AV  24092.66632781  .00005457  00000-0  36059-3 0  9996,2 49767  53.2175  73.0722 0001289  85.9279 274.1860 15.08848431130058,6917.855,95.437,540.611,538.828,0.0
49767.0,STARLINK-3192,PAYLOAD,2024-04-02 07:53:22,15.08848599,0.0001349,53.2168,70.0979,87.7376,272.3771,0.00034125,5.148e-05,0.0,0 STARLINK-3192,1 49767U 21115AV  24093.32872726  .00005148  00000-0  34125-3 0  9994,2 49767  53.2168  70.0979 0001349  87.7376 272.3771 15.08848599130153,6917.854,95.437,540.652,538.786,0.0
49767.0,STARLINK-3192,PAYLOAD,2024-04-02 15:50:17,15.0885457,0.0001323,53.2169,68.6107,92.55,267.5644,0.0003658,5.541e-05,0.0,0 STARLINK-3192,1 49767U 21115AV  24093.65992269  .00005541  00000-0  36580-3 0  9999,2 49767  53.2169  68.6107 0001323  92.5500 267.5644 15.08854570129097,6917.836,95.437,540.616,538.786,0.0
49767.0,STARLINK-3192,PAYLOAD,2024-04-03 02:57:59,15.08838567,0.0001527,53.2182,66.5316,80.5987,279.5177,2.1842e-05,6e-07,0.0,0 STARLINK-3192,1 49767U 21115AV  24094.12361040  .00000060  00000-0  21842-4 0  9996,2 49767  53.2182  66.5316 0001527  80.5987 279.5177 15.08838567130277,6917.885,95.438,540.806,538.693,0.0
49767.0,STARLINK-3192,PAYLOAD,2024-04-03 07:44:09,15.08842135,0.0001484,53.2179,65.6364,91.7214,268.3948,8.9467e-06,-1.46e-06,0.0,0 STARLINK-3192,1 49767U 21115AV  24094.32232769 -.00000146  00000-0  89467-5 0  9997,2 49767  53.2179  65.6364 0001484  91.7214 268.3948 15.08842135129192,6917.874,95.437,540.765,538.712,0.0
49767.0,STARLINK-3192,PAYLOAD,2024-04-03 15:41:04,15.08846692,0.0001443,53.2177,64.1499,93.0998,267.016,6.4178e-05,7.34e-06,0.0,0 STARLINK-3192,1 49767U 21115AV  24094.65352447  .00000734  00000-0  64178-4 0  9992,2 49767  53.2177  64.1499 0001443  93.0998 267.0160 15.08846692130356,6917.86,95.437,540.723,538.727,0.0
49767.0,STARLINK-3192,PAYLOAD,2024-04-04 04:24:09,15.08842963,0.0001456,53.2179,61.7714,92.4904,267.6255,1.1533e-05,-1.04e-06,0.0,0 STARLINK-3192,1 49767U 21115AV  24095.18344593 -.00000104  00000-0  11533-4 0  9993,2 49767  53.2179  61.7714 0001456  92.4904 267.6255 15.08842963129328,6917.871,95.437,540.744,538.729,0.0
49767.0,STARLINK-3192,PAYLOAD,2024-04-04 21:53:24,15.08841978,0.0001563,53.2185,58.5001,93.8137,266.3033,0.00019102,2.754e-05,0.0,0 STARLINK-3192,1 49767U 21115AV  24095.91208629  .00002754  00000-0  19102-3 0  9994,2 49767  53.2185  58.5001 0001563  93.8137 266.3033 15.08841978130541,6917.874,95.437,540.821,538.658,0.0
49767.0,STARLINK-3192,PAYLOAD,2024-04-05 13:47:15,15.08851417,0.0001451,53.2182,55.5286,90.0589,270.057,0.00022197,3.248e-05,0.0,0 STARLINK-3192,1 49767U 21115AV  24096.57448001  .00003248  00000-0  22197-3 0  9994,2 49767  53.2182  55.5286 0001451  90.0589 270.0570 15.08851417129530,6917.845,95.437,540.714,538.707,0.0
49767.0,STARLINK-3192,PAYLOAD,2024-04-06 04:05:44,15.08834603,0.0001358,53.2175,52.8523,94.8131,265.3016,-3.1281e-06,-3.38e-06,0.0,0 STARLINK-3192,1 49767U 21115AV  24097.17064934 -.00000338  00000-0 -31281-5 0  9995,2 49767  53.2175  52.8523 0001358  94.8131 265.3016 15.08834603130731,6917.897,95.438,540.701,538.822,0.0
49767.0,STARLINK-3192,PAYLOAD,2024-04-06 13:38:02,15.08842853,0.0001505,53.2182,51.0687,98.0491,262.0672,9.837e-05,1.278e-05,0.0,0 STARLINK-3192,1 49767U 21115AV  24097.56808598  .00001278  00000-0  98370-4 0  9993,2 49767  53.2182  51.0687 0001505  98.0491 262.0672 15.08842853129680,6917.872,95.437,540.778,538.696,0.0
49767.0,STARLINK-3192,PAYLOAD,2024-04-07 13:28:49,15.08844216,0.0001476,53.2194,46.6094,94.9445,265.1716,0.00018532,2.663e-05,0.0,0 STARLINK-3192,1 49767U 21115AV  24098.56168741  .00002663  00000-0  18532-3 0  9993,2 49767  53.2194  46.6094 0001476  94.9445 265.1716 15.08844216129831,6917.868,95.437,540.754,538.711,0.0
49767.0,STARLINK-3192,PAYLOAD,2024-04-08 05:22:41,15.08836446,0.0001587,53.2198,43.6374,95.7284,264.3889,0.00012166,1.649e-05,0.0,0 STARLINK-3192,1 49767U 21115AV  24099.22409452  .00001649  00000-0  12166-3 0  9994,2 49767  53.2198  43.6374 0001587  95.7284 264.3889 15.08836446131040,6917.891,95.438,540.854,538.658,0.0
49767.0,STARLINK-3192,PAYLOAD,2024-04-08 13:19:37,15.08845341,0.0001552,53.22,42.1486,90.3999,269.7171,0.00017135,2.44e-05,0.0,0 STARLINK-3192,1 49767U 21115AV  24099.55528995  .00002440  00000-0  17135-3 0  9995,2 49767  53.2200  42.1486 0001552  90.3999 269.7171 15.08845341129985,6917.864,95.437,540.803,538.655,0.0
49767.0,STARLINK-3192,PAYLOAD,2024-04-09 00:27:19,15.08831495,0.0001535,53.2202,40.0658,86.3585,273.7582,4.0513e-05,3.57e-06,0.0,0 STARLINK-3192,1 49767U 21115AV  24100.01897893  .00000357  00000-0  40513-4 0  9997,2 49767  53.2202  40.0658 0001535  86.3585 273.7582 15.08831495130058,6917.906,95.438,540.833,538.709,0.0
